start=new Date('2022-10-03T00:00:00.000Z').valueOf();
sats=[{"APOAPSIS":"548.421","RCS_SIZE":"LARGE","COUNTRY_CODE":"US","OBJECT_NAME":"STARLINK-1291","RA_OF_ASC_NODE":"15.6649","OBJECT_TYPE":"PAYLOAD","NORAD_CAT_ID":"45393","MEAN_ELEMENT_THEORY":"SGP4","SEMIMAJOR_AXIS":"6925.369","DECAY_DATE":null,"MEAN_MOTION_DDOT":"0.0000000000000","LAUNCH_DATE":"2020-03-18","TIME_SYSTEM":"UTC","REF_FRAME":"TEME","SITE":"AFETR","OBJECT_ID":"2020-019AK","TLE_LINE2":"2 45393  53.0557  15.6649 0001713  60.8649 299.2512 15.06393255140775","PERIOD":"95.593","ECCENTRICITY":"0.00017130","CLASSIFICATION_TYPE":"U","MEAN_MOTION_DOT":"0.00025875","INCLINATION":"53.0557","MEAN_MOTION":"15.06393255","TLE_LINE1":"1 45393U 20019AK  22275.77420096  .00025875  00000-0  17499-2 0  9998","ARG_OF_PERICENTER":"60.8649","FILE":"3589751","EPOCH":"2022-10-02T18:34:50.962944","ELEMENT_SET_NO":"999","EPHEMERIS_TYPE":"0","BSTAR":"0.00174990000000","PERIAPSIS":"546.048","REV_AT_EPOCH":"14077","MEAN_ANOMALY":"299.2512","CENTER_NAME":"EARTH","GP_ID":"214046685"},{"ARG_OF_PERICENTER":"78.4865","TLE_LINE1":"1 45394U 20019AL  22275.67100684 -.00001756  00000-0 -99083-4 0  9991","FILE":"3589751","EPHEMERIS_TYPE":"0","ELEMENT_SET_NO":"999","EPOCH":"2022-10-02T16:06:14.990976","BSTAR":"-0.00009908300000","ECCENTRICITY":"0.00014460","MEAN_MOTION_DOT":"-0.00001756","CLASSIFICATION_TYPE":"U","INCLINATION":"53.0555","MEAN_MOTION":"15.06384304","GP_ID":"214045453","REV_AT_EPOCH":"14073","PERIAPSIS":"546.260","CENTER_NAME":"EARTH","MEAN_ANOMALY":"281.6287","OBJECT_TYPE":"PAYLOAD","NORAD_CAT_ID":"45394","RCS_SIZE":"LARGE","APOAPSIS":"548.263","RA_OF_ASC_NODE":"16.1411","OBJECT_NAME":"STARLINK-1292","COUNTRY_CODE":"US","SITE":"AFETR","REF_FRAME":"TEME","OBJECT_ID":"2020-019AL","TLE_LINE2":"2 45394  53.0555  16.1411 0001446  78.4865 281.6287 15.06384304140730","PERIOD":"95.593","SEMIMAJOR_AXIS":"6925.397","MEAN_ELEMENT_THEORY":"SGP4","MEAN_MOTION_DDOT":"0.0000000000000","DECAY_DATE":null,"LAUNCH_DATE":"2020-03-18","TIME_SYSTEM":"UTC"},{"GP_ID":"214045702","REV_AT_EPOCH":"14018","PERIAPSIS":"546.354","CENTER_NAME":"EARTH","MEAN_ANOMALY":"285.4425","ARG_OF_PERICENTER":"74.6710","TLE_LINE1":"1 45395U 20019AM  22275.70049444 -.00002891  00000-0 -17534-3 0  9993","FILE":"3589751","EPHEMERIS_TYPE":"0","ELEMENT_SET_NO":"999","EPOCH":"2022-10-02T16:48:42.719616","BSTAR":"-0.00017534000000","ECCENTRICITY":"0.00013170","CLASSIFICATION_TYPE":"U","MEAN_MOTION_DOT":"-0.00002891","INCLINATION":"53.0568","MEAN_MOTION":"15.06382899","SITE":"AFETR","REF_FRAME":"TEME","OBJECT_ID":"2020-019AM","TLE_LINE2":"2 45395  53.0568  15.9880 0001317  74.6710 285.4425 15.06382899140188","PERIOD":"95.593","SEMIMAJOR_AXIS":"6925.401","MEAN_ELEMENT_THEORY":"SGP4","MEAN_MOTION_DDOT":"0.0000000000000","DECAY_DATE":null,"LAUNCH_DATE":"2020-03-18","TIME_SYSTEM":"UTC","OBJECT_TYPE":"PAYLOAD","NORAD_CAT_ID":"45395","RCS_SIZE":"LARGE","APOAPSIS":"548.178","RA_OF_ASC_NODE":"15.9880","OBJECT_NAME":"STARLINK-1297","COUNTRY_CODE":"US"},{"RCS_SIZE":"LARGE","APOAPSIS":"548.233","OBJECT_NAME":"STARLINK-1303","RA_OF_ASC_NODE":"15.7744","COUNTRY_CODE":"US","OBJECT_TYPE":"PAYLOAD","NORAD_CAT_ID":"45396","SEMIMAJOR_AXIS":"6925.342","MEAN_ELEMENT_THEORY":"SGP4","MEAN_MOTION_DDOT":"0.0000000000000","DECAY_DATE":null,"LAUNCH_DATE":"2020-03-18","TIME_SYSTEM":"UTC","SITE":"AFETR","REF_FRAME":"TEME","OBJECT_ID":"2020-019AN","TLE_LINE2":"2 45396  53.0554  15.7744 0001482  67.3789 292.7357 15.06402095140725","PERIOD":"95.592","ECCENTRICITY":"0.00014820","MEAN_MOTION_DOT":"-0.00005901","CLASSIFICATION_TYPE":"U","INCLINATION":"53.0554","MEAN_MOTION":"15.06402095","TLE_LINE1":"1 45396U 20019AN  22275.74838506 -.00005901  00000-0 -37758-3 0  9998","ARG_OF_PERICENTER":"67.3789","FILE":"3589751","ELEMENT_SET_NO":"999","EPHEMERIS_TYPE":"0","EPOCH":"2022-10-02T17:57:40.469184","BSTAR":"-0.00037758000000","REV_AT_EPOCH":"14072","PERIAPSIS":"546.181","CENTER_NAME":"EARTH","MEAN_ANOMALY":"292.7357","GP_ID":"214046948"},{"REF_FRAME":"TEME","SITE":"AFETR","OBJECT_ID":"2020-019AP","TLE_LINE2":"2 45397  53.0555  16.0155 0001324  66.1784 293.9343 15.06387475140827","PERIOD":"95.593","SEMIMAJOR_AXIS":"6925.387","MEAN_ELEMENT_THEORY":"SGP4","DECAY_DATE":null,"MEAN_MOTION_DDOT":"0.0000000000000","LAUNCH_DATE":"2020-03-18","TIME_SYSTEM":"UTC","OBJECT_TYPE":"PAYLOAD","NORAD_CAT_ID":"45397","APOAPSIS":"548.169","RCS_SIZE":"LARGE","COUNTRY_CODE":"US","OBJECT_NAME":"STARLINK-1307","RA_OF_ASC_NODE":"16.0155","GP_ID":"214047185","PERIAPSIS":"546.335","REV_AT_EPOCH":"14082","MEAN_ANOMALY":"293.9343","CENTER_NAME":"EARTH","TLE_LINE1":"1 45397U 20019AP  22275.69311307 -.00003948  00000-0 -24638-3 0  9990","ARG_OF_PERICENTER":"66.1784","FILE":"3589751","EPHEMERIS_TYPE":"0","ELEMENT_SET_NO":"999","EPOCH":"2022-10-02T16:38:04.969248","BSTAR":"-0.00024638000000","ECCENTRICITY":"0.00013240","MEAN_MOTION_DOT":"-0.00003948","CLASSIFICATION_TYPE":"U","MEAN_MOTION":"15.06387475","INCLINATION":"53.0555"},{"PERIAPSIS":"546.312","REV_AT_EPOCH":"14075","MEAN_ANOMALY":"275.7135","CENTER_NAME":"EARTH","GP_ID":"214045953","ECCENTRICITY":"0.00013640","MEAN_MOTION_DOT":"-0.00001175","CLASSIFICATION_TYPE":"U","INCLINATION":"53.0582","MEAN_MOTION":"15.06386039","ARG_OF_PERICENTER":"84.4009","TLE_LINE1":"1 45398U 20019AQ  22275.68574389 -.00001175  00000-0 -60013-4 0  9999","FILE":"3589751","ELEMENT_SET_NO":"999","EPHEMERIS_TYPE":"0","EPOCH":"2022-10-02T16:27:28.272096","BSTAR":"-0.00006001300000","SEMIMAJOR_AXIS":"6925.391","MEAN_ELEMENT_THEORY":"SGP4","DECAY_DATE":null,"MEAN_MOTION_DDOT":"0.0000000000000","LAUNCH_DATE":"2020-03-18","TIME_SYSTEM":"UTC","REF_FRAME":"TEME","SITE":"AFETR","OBJECT_ID":"2020-019AQ","TLE_LINE2":"2 45398  53.0582  16.0632 0001364  84.4009 275.7135 15.06386039140759","PERIOD":"95.593","APOAPSIS":"548.201","RCS_SIZE":"LARGE","COUNTRY_CODE":"US","RA_OF_ASC_NODE":"16.0632","OBJECT_NAME":"STARLINK-1312","OBJECT_TYPE":"PAYLOAD","NORAD_CAT_ID":"45398"},{"DECAY_DATE":null,"MEAN_MOTION_DDOT":"0.0000000000000","MEAN_ELEMENT_THEORY":"SGP4","SEMIMAJOR_AXIS":"6925.361","TIME_SYSTEM":"UTC","LAUNCH_DATE":"2020-03-18","OBJECT_ID":"2020-019AR","REF_FRAME":"TEME","SITE":"AFETR","PERIOD":"95.592","TLE_LINE2":"2 45399  53.0556   6.1615 0001655  59.9712 300.1441 15.06395779140948","COUNTRY_CODE":"US","OBJECT_NAME":"STARLINK-1255","RA_OF_ASC_NODE":"6.1615","APOAPSIS":"548.373","RCS_SIZE":"LARGE","OBJECT_TYPE":"PAYLOAD","NORAD_CAT_ID":"45399","PERIAPSIS":"546.080","REV_AT_EPOCH":"14094","MEAN_ANOMALY":"300.1441","CENTER_NAME":"EARTH","GP_ID":"214046202","ECCENTRICITY":"0.00016550","INCLINATION":"53.0556","MEAN_MOTION":"15.06395779","MEAN_MOTION_DOT":"-0.00001785","CLASSIFICATION_TYPE":"U","FILE":"3589751","ARG_OF_PERICENTER":"59.9712","TLE_LINE1":"1 45399U 20019AR  22275.66086533 -.00001785  00000-0 -10099-3 0  9992","BSTAR":"-0.00010099000000","EPOCH":"2022-10-02T15:51:38.764512","ELEMENT_SET_NO":"999","EPHEMERIS_TYPE":"0"},{"CENTER_NAME":"EARTH","MEAN_ANOMALY":"300.5329","REV_AT_EPOCH":"14087","PERIAPSIS":"546.240","GP_ID":"214046450","MEAN_MOTION":"15.06389007","INCLINATION":"53.0569","MEAN_MOTION_DOT":"-0.00002376","CLASSIFICATION_TYPE":"U","ECCENTRICITY":"0.00014540","BSTAR":"-0.00014072000000","ELEMENT_SET_NO":"999","EPHEMERIS_TYPE":"0","EPOCH":"2022-10-02T16:12:52.379136","FILE":"3589751","TLE_LINE1":"1 45400U 20019AS  22275.67560624 -.00002376  00000-0 -14072-3 0  9996","ARG_OF_PERICENTER":"59.5804","TIME_SYSTEM":"UTC","LAUNCH_DATE":"2020-03-18","MEAN_MOTION_DDOT":"0.0000000000000","DECAY_DATE":null,"MEAN_ELEMENT_THEORY":"SGP4","SEMIMAJOR_AXIS":"6925.382","PERIOD":"95.593","TLE_LINE2":"2 45400  53.0569   6.1057 0001454  59.5804 300.5329 15.06389007140878","OBJECT_ID":"2020-019AS","SITE":"AFETR","REF_FRAME":"TEME","OBJECT_NAME":"STARLINK-1213","RA_OF_ASC_NODE":"6.1057","COUNTRY_CODE":"US","RCS_SIZE":"LARGE","APOAPSIS":"548.254","NORAD_CAT_ID":"45400","OBJECT_TYPE":"PAYLOAD"},{"NORAD_CAT_ID":"45401","OBJECT_TYPE":"PAYLOAD","RCS_SIZE":"LARGE","APOAPSIS":"548.413","RA_OF_ASC_NODE":"6.7295","OBJECT_NAME":"STARLINK-1256","COUNTRY_CODE":"US","TLE_LINE2":"2 45401  53.0560   6.7295 0001657  58.2218 301.8932 15.06383185140921","PERIOD":"95.593","SITE":"AFETR","REF_FRAME":"TEME","OBJECT_ID":"2020-019AT","LAUNCH_DATE":"2020-03-18","TIME_SYSTEM":"UTC","SEMIMAJOR_AXIS":"6925.400","MEAN_ELEMENT_THEORY":"SGP4","MEAN_MOTION_DDOT":"0.0000000000000","DECAY_DATE":null,"ELEMENT_SET_NO":"999","EPHEMERIS_TYPE":"0","EPOCH":"2022-10-02T12:56:29.123808","BSTAR":"-0.00025015000000","ARG_OF_PERICENTER":"58.2218","TLE_LINE1":"1 45401U 20019AT  22275.53922597 -.00004004  00000-0 -25015-3 0  9992","FILE":"3589474","CLASSIFICATION_TYPE":"U","MEAN_MOTION_DOT":"-0.00004004","MEAN_MOTION":"15.06383185","INCLINATION":"53.0560","ECCENTRICITY":"0.00016570","GP_ID":"214014645","CENTER_NAME":"EARTH","MEAN_ANOMALY":"301.8932","REV_AT_EPOCH":"14092","PERIAPSIS":"546.118"},{"GP_ID":"214013411","PERIAPSIS":"546.264","REV_AT_EPOCH":"14093","MEAN_ANOMALY":"296.0078","CENTER_NAME":"EARTH","ARG_OF_PERICENTER":"64.1056","TLE_LINE1":"1 45402U 20019AU  22275.53459933  .00001249  00000-0  10272-3 0  9997","FILE":"3589474","EPOCH":"2022-10-02T12:49:49.382112","ELEMENT_SET_NO":"999","EPHEMERIS_TYPE":"0","BSTAR":"0.00010272000000","ECCENTRICITY":"0.00014110","CLASSIFICATION_TYPE":"U","MEAN_MOTION_DOT":"0.00001249","MEAN_MOTION":"15.06390957","INCLINATION":"53.0563","REF_FRAME":"TEME","SITE":"AFETR","OBJECT_ID":"2020-019AU","TLE_LINE2":"2 45402  53.0563   6.7323 0001411  64.1056 296.0078 15.06390957140933","PERIOD":"95.593","MEAN_ELEMENT_THEORY":"SGP4","SEMIMAJOR_AXIS":"6925.376","DECAY_DATE":null,"MEAN_MOTION_DDOT":"0.0000000000000","LAUNCH_DATE":"2020-03-18","TIME_SYSTEM":"UTC","OBJECT_TYPE":"PAYLOAD","NORAD_CAT_ID":"45402","APOAPSIS":"548.218","RCS_SIZE":"LARGE","COUNTRY_CODE":"US","RA_OF_ASC_NODE":"6.7323","OBJECT_NAME":"STARLINK-1257"}];
